     2.100          NAVIGATION                              RINEX VERSION / TYPE
fic2rin                                 08/11/2016 00:23:08 PGM / RUN BY / DATE
                                                            END OF HEADER
30 16  8 10 14  0  0.0  .144716352224D-03  .204636307899D-11  .000000000000D+00
     .240000000000D+02  .338750000000D+02  .483663003648D-08 -.118075306461D+01
     .154227018356D-05  .234768015798D-02  .509433448315D-05  .515357537460D+04
     .309600000000D+06  .335276126862D-07 -.335909187029D+00  .186264514923D-07
     .951487629988D+00  .273218750000D+03  .312976719479D+01 -.834927635230D-08
     .119290683221D-09  .100000000000D+01  .190900000000D+04  .000000000000D+00
     .240000000000D+01  .000000000000D+00  .372529029846D-08  .240000000000D+02
     .302406000000D+06  .400000000000D+01
31 16  8 10 14  0  0.0  .254252925515D-03 -.204636307899D-11  .000000000000D+00
     .100000000000D+02  .452500000000D+02  .451661670664D-08 -.142985464728D+01
     .204145908356D-05  .818148173857D-02  .571645796299D-05  .515379849815D+04
     .309600000000D+06 -.800937414169D-07 -.369289024793D+00 -.137835741043D-06
     .970500491618D+00  .277406250000D+03 -.392672342482D+00 -.819891294621D-08
     .222866426138D-09  .100000000000D+01  .190900000000D+04  .000000000000D+00
     .240000000000D+01  .000000000000D+00 -.135041773319D-07  .100000000000D+02
     .302406000000D+06  .400000000000D+01
32 16  8 10 14  0  0.0 -.749686732888D-04 -.122781784739D-10  .000000000000D+00
     .350000000000D+02  .488750000000D+02  .439446876155D-08  .188890926461D+01
     .263191759586D-05  .635020667687D-03  .952742993832D-05  .515363621330D+04
     .309600000000D+06 -.130385160446D-07 -.145562986821D+01 -.223517417908D-07
     .958916107093D+00  .189875000000D+03 -.228031884107D+01 -.798461830569D-08
     .510735559900D-10  .100000000000D+01  .190900000000D+04  .000000000000D+00
     .240000000000D+01  .000000000000D+00  .931322574615D-09  .350000000000D+02
     .302406000000D+06  .400000000000D+01
 4 16  8 10 13 59 44.0 -.259951222688D-03 -.341060513165D-12  .000000000000D+00
     .100000000000D+02 -.345312500000D+02  .541486840815D-08  .266068488846D+01
    -.181607902050D-05  .845891667996D-02  .643171370029D-05  .515366733170D+04
     .309584000000D+06 -.372529029846D-08  .668493313407D+00 -.113621354103D-06
     .983272755383D+00  .268437500000D+03  .903685593858D+00 -.782139722116D-08
    -.119290683221D-09  .100000000000D+01  .190900000000D+04  .000000000000D+00
     .240000000000D+01  .630000000000D+02 -.195577740669D-07  .100000000000D+02
     .308826000000D+06  .400000000000D+01
 4 16  8 10 15 59 44.0 -.259953550994D-03 -.341060513165D-12  .000000000000D+00
     .110000000000D+02 -.303125000000D+02  .536843790270D-08 -.257228287747D+01
    -.180117785931D-05  .845818698872D-02  .654533505440D-05  .515366870117D+04
     .316784000000D+06  .141561031342D-06  .668436338599D+00 -.856816768646D-07
     .983271972722D+00  .263968750000D+03  .903659254018D+00 -.787711382769D-08
    -.271439877989D-10  .100000000000D+01  .190900000000D+04  .000000000000D+00
     .240000000000D+01  .630000000000D+02 -.195577740669D-07  .110000000000D+02
     .309606000000D+06  .400000000000D+01
 1 16  8 10 16  0  0.0  .299122184515D-04  .136424205266D-11  .000000000000D+00
     .160000000000D+02 -.142812500000D+02  .472198240381D-08  .494455583214D+00
    -.605359673500D-06  .578551739454D-02  .648014247417D-05  .515363542366D+04
     .316800000000D+06  .931322574615D-08  .274553280872D+01  .409781932831D-07
     .965255694774D+00  .252156250000D+03  .517915038475D+00 -.820569894316D-08
     .607168148133D-11  .100000000000D+01  .190900000000D+04  .000000000000D+00
     .240000000000D+01  .000000000000D+00  .512227416039D-08  .160000000000D+02
     .309606000000D+06  .400000000000D+01
 2 16  8 10 16  0  0.0  .566801056266D-03 -.432009983342D-11  .000000000000D+00
     .200000000000D+02 -.117812500000D+02  .521843165434D-08  .911711498912D+00
    -.510364770889D-06  .158634214895D-01  .684522092342D-05  .515361171150D+04
     .316800000000D+06 -.203028321266D-06  .269840259432D+01  .141561031342D-06
     .944032732581D+00  .244593750000D+03 -.209533867090D+01 -.865857495012D-08
    -.675028117631D-10  .100000000000D+01  .190900000000D+04  .000000000000D+00
     .240000000000D+01  .000000000000D+00 -.204890966415D-07  .200000000000D+02
     .309606000000D+06  .400000000000D+01
 3 16  8 10 16  0  0.0 -.796280801296D-04 -.272848410532D-11  .000000000000D+00
     .600000000000D+02 -.250000000000D+02  .464483633322D-08  .607065286706D+00
    -.150129199028D-05  .148252933286D-03  .805780291557D-05  .515364312744D+04
     .316800000000D+06  .428408384323D-07 -.249639681823D+01 -.186264514923D-08
     .959516033706D+00  .224000000000D+03 -.738895910963D+00 -.806819321549D-08
    -.321799118511D-09  .100000000000D+01  .190900000000D+04  .000000000000D+00
     .240000000000D+01  .000000000000D+00  .139698386192D-08  .600000000000D+02
     .309606000000D+06  .400000000000D+01
 5 16  8 10 16  0  0.0 -.990955159068D-04  .272848410532D-11  .000000000000D+00
     .750000000000D+02 -.240000000000D+02  .485984528921D-08 -.288140091865D+01
    -.127404928207D-05  .465768051799D-02  .808946788311D-05  .515357411766D+04
     .316800000000D+06 -.298023223877D-07 -.250930904814D+01 -.409781932831D-07
     .946569448623D+00  .216093750000D+03  .474778763047D+00 -.814462497061D-08
    -.201794119821D-09  .100000000000D+01  .190900000000D+04  .000000000000D+00
     .240000000000D+01  .000000000000D+00 -.107102096081D-07  .750000000000D+02
     .309606000000D+06  .400000000000D+01
 6 16  8 10 16  0  0.0  .230723526329D-03  .522959453519D-11  .000000000000D+00
     .650000000000D+02 -.156250000000D+02  .457911931013D-08  .760285641429D+00
    -.817701220512D-06  .270970282145D-03  .664591789246D-05  .515374254227D+04
     .316800000000D+06 -.521540641785D-07  .273711817123D+01  .167638063431D-07
     .965069702295D+00  .255468750000D+03 -.135427564869D+01 -.808890836407D-08
     .635740766869D-10  .100000000000D+01  .190900000000D+04  .000000000000D+00
     .240000000000D+01  .000000000000D+00  .419095158577D-08  .650000000000D+02
     .309606000000D+06  .400000000000D+01
 7 16  8 10 16  0  0.0  .435823109001D-03 -.272848410532D-11  .000000000000D+00
     .102000000000D+03  .444687500000D+02  .455733268834D-08 -.205436263394D+00
     .248290598392D-05  .988380203489D-02  .557675957680D-05  .515363227844D+04
     .316800000000D+06  .651925802231D-07 -.379029313304D+00  .122934579849D-06
     .965690784166D+00  .274468750000D+03 -.264856714302D+01 -.831498920982D-08
     .137148569931D-09  .100000000000D+01  .190900000000D+04  .000000000000D+00
     .240000000000D+01  .000000000000D+00 -.111758708954D-07  .102000000000D+03
     .309606000000D+06  .400000000000D+01
 8 16  8 10 16  0  0.0 -.460864976048D-04 -.136424205266D-11  .000000000000D+00
     .550000000000D+02 -.325312500000D+02  .452125975719D-08 -.285099469887D+01
    -.154227018356D-05  .167807284743D-02  .854209065437D-05  .515373586464D+04
     .316800000000D+06 -.242143869400D-07  .168428568439D+01  .894069671631D-07
     .963785887814D+00  .216156250000D+03 -.103186656081D+01 -.801176229349D-08
     .202151277555D-09  .100000000000D+01  .190900000000D+04  .000000000000D+00
     .240000000000D+01  .000000000000D+00  .512227416039D-08  .550000000000D+02
     .309606000000D+06  .400000000000D+01
 9 16  8 10 16  0  0.0  .184229575098D-03  .727595761418D-11  .000000000000D+00
     .380000000000D+02  .387187500000D+02  .441482675240D-08  .246875771678D+01
     .212900340557D-05  .496610184200D-03  .941939651966D-05  .515381055832D+04
     .316800000000D+06 -.115483999252D-06 -.145745951352D+01  .353902578354D-07
     .954341632480D+00  .194687500000D+03  .215264960579D+01 -.791211528565D-08
    -.242867259253D-10  .100000000000D+01  .190900000000D+04  .000000000000D+00
     .240000000000D+01  .000000000000D+00  .139698386192D-08  .380000000000D+02
     .309606000000D+06  .400000000000D+01
10 16  8 10 16  0  0.0 -.809971243143D-04 -.613908923697D-11  .000000000000D+00
     .910000000000D+02 -.183125000000D+02  .449554440033D-08 -.176085562126D+01
    -.903382897377D-06  .165134214330D-02  .848807394505D-05  .515367838287D+04
     .316800000000D+06 -.447034835815D-07 -.250034035675D+01 -.372529029846D-07
     .959744099708D+00  .217375000000D+03 -.277376318655D+01 -.792961601462D-08
    -.253581991279D-09  .100000000000D+01  .190900000000D+04  .000000000000D+00
     .240000000000D+01  .000000000000D+00  .232830643654D-08  .910000000000D+02
     .309606000000D+06  .400000000000D+01
11 16  8 10 16  0  0.0 -.658765900880D-03 -.113686837722D-11  .000000000000D+00
     .400000000000D+02 -.737500000000D+01  .635705051096D-08 -.935377765438D-01
    -.193715095520D-06  .167118244572D-01  .691972672939D-05  .515366955948D+04
     .316800000000D+06 -.175088644028D-06  .236329993597D+01  .149011611938D-07
     .897568488222D+00  .213375000000D+03  .155517858350D+01 -.925145678888D-08
     .199294015681D-09  .100000000000D+01  .190900000000D+04  .000000000000D+00
     .240000000000D+01  .000000000000D+00 -.121071934700D-07  .400000000000D+02
     .309606000000D+06  .400000000000D+01
12 16  8 10 16  0  0.0  .387226231396D-03  .795807864051D-12  .000000000000D+00
     .910000000000D+02 -.233750000000D+02  .403731102735D-08 -.808064654153D+00
    -.102072954178D-05  .607396650594D-02  .675022602081D-05  .515368171310D+04
     .316800000000D+06  .447034835815D-07  .698268395213D+00  .949949026108D-07
     .990314505706D+00  .267281250000D+03  .787807548512D+00 -.789997192268D-08
    -.164292557730D-10  .100000000000D+01  .190900000000D+04  .000000000000D+00
     .340000000000D+01  .000000000000D+00 -.125728547573D-07  .910000000000D+02
     .309606000000D+06  .400000000000D+01
